NORAD_CAT_ID,OBJECT_NAME,OBJECT_TYPE,EPOCH,MEAN_MOTION,ECCENTRICITY,INCLINATION,RA_OF_ASC_NODE,ARG_OF_PERICENTER,MEAN_ANOMALY,BSTAR,MEAN_MOTION_DOT,MEAN_MOTION_DDOT,TLE_LINE0,TLE_LINE1,TLE_LINE2,SEMIMAJOR_AXIS,PERIOD,APOGEE,PERIGEE,DECAYED
53591.0,STARLINK-4674,PAYLOAD,2023-12-28 03:11:29,15.08848481,0.0001227,53.2151,247.1099,110.6984,249.4139,0.00023189,3.405e-05,0.0,0 STARLINK-4674,1 53591U 22104D   23362.13297847  .00003405  00000-0  23189-3 0  9997,2 53591  53.2151 247.1099 0001227 110.6984 249.4139 15.08848481 73767,6917.854,95.437,540.568,538.871,0.0
53591.0,STARLINK-4674,PAYLOAD,2023-12-28 22:16:07,15.08842728,0.0001523,53.2154,243.5389,82.7786,277.3379,5.5319e-05,5.93e-06,0.0,0 STARLINK-4674,1 53591U 22104D   23362.92786324  .00000593  00000-0  55319-4 0  9993,2 53591  53.2154 243.5389 0001523  82.7786 277.3379 15.08842728 74923,6917.872,95.437,540.791,538.683,0.0
53591.0,STARLINK-4674,PAYLOAD,2023-12-28 23:51:30,15.08844369,0.000156,53.2151,243.2413,80.2423,279.8745,8.7117e-05,1.099e-05,0.0,0 STARLINK-4674,1 53591U 22104D   23362.99410340  .00001099  00000-0  87117-4 0  9995,2 53591  53.2151 243.2413 0001560  80.2423 279.8745 15.08844369 73899,6917.867,95.437,540.811,538.653,0.0
53591.0,STARLINK-4674,PAYLOAD,2023-12-29 18:56:08,15.08834497,0.0001322,53.215,239.6729,97.6931,262.4212,0.00018963,2.731e-05,0.0,0 STARLINK-4674,1 53591U 22104D   23363.78898674  .00002731  00000-0  18963-3 0  9999,2 53591  53.2150 239.6729 0001322  97.6931 262.4212 15.08834497 74012,6917.897,95.438,540.677,538.848,0.0
53591.0,STARLINK-4674,PAYLOAD,2023-12-29 22:06:54,15.08841296,0.0001563,53.2156,239.0772,76.2063,283.9103,0.00010437,1.373e-05,0.0,0 STARLINK-4674,1 53591U 22104D   23363.92146664  .00001373  00000-0  10437-3 0  9999,2 53591  53.2156 239.0772 0001563  76.2063 283.9103 15.08841296 75075,6917.876,95.437,540.823,538.66,0.0
53591.0,STARLINK-4674,PAYLOAD,2023-12-30 20:22:18,15.08844475,0.000149,53.2147,234.9168,73.0621,287.0534,9.9921e-05,1.303e-05,0.0,0 STARLINK-4674,1 53591U 22104D   23364.84882547  .00001303  00000-0  99921-4 0  9997,2 53591  53.2147 234.9168 0001490  73.0621 287.0534 15.08844475 75213,6917.867,95.437,540.762,538.701,0.0
53591.0,STARLINK-4674,PAYLOAD,2023-12-31 20:13:05,15.08840809,0.0001392,53.2157,230.4552,91.7787,268.3365,7.6655e-05,9.32e-06,0.0,0 STARLINK-4674,1 53591U 22104D   23365.84242693  .00000932  00000-0  76655-4 0  9996,2 53591  53.2157 230.4552 0001392  91.7787 268.3365 15.08840809 74325,6917.878,95.438,540.706,538.78,0.0
53591.0,STARLINK-4674,PAYLOAD,2023-12-31 21:48:28,15.08840919,0.0001406,53.2157,230.1577,92.5827,267.5326,6.9928e-05,8.25e-06,0.0,0 STARLINK-4674,1 53591U 22104D   23365.90866614  .00000825  00000-0  69928-4 0  9994,2 53591  53.2157 230.1577 0001406  92.5827 267.5326 15.08840919 75375,6917.878,95.437,540.715,538.77,0.0
53591.0,STARLINK-4674,PAYLOAD,2024-01-01 00:59:14,15.08841322,0.0001406,53.2157,229.5629,93.2627,266.8526,6.7499e-05,7.87e-06,0.0,0 STARLINK-4674,1 53591U 22104D   24001.04114558  .00000787  00000-0  67499-4 0  9998,2 53591  53.2157 229.5629 0001406  93.2627 266.8526 15.08841322 75396,6917.876,95.437,540.714,538.769,0.0
53591.0,STARLINK-4674,PAYLOAD,2024-01-01 21:39:15,15.08842547,0.0001446,53.2156,225.6967,96.0583,264.0574,6.0472e-05,6.75e-06,0.0,0 STARLINK-4674,1 53591U 22104D   24001.90226445  .00000675  00000-0  60472-4 0  9992,2 53591  53.2156 225.6967 0001446  96.0583 264.0574 15.08842547 75521,6917.873,95.437,540.738,538.737,0.0
53591.0,STARLINK-4674,PAYLOAD,2024-01-02 00:50:01,15.08842596,0.0001446,53.2155,225.102,95.7276,264.3881,5.8029e-05,6.36e-06,0.0,0 STARLINK-4674,1 53591U 22104D   24002.03474420  .00000636  00000-0  58029-4 0  9997,2 53591  53.2155 225.1020 0001446  95.7276 264.3881 15.08842596 74505,6917.872,95.437,540.738,538.737,0.0
53591.0,STARLINK-4674,PAYLOAD,2024-01-02 15:08:30,15.08838596,0.0001469,53.2156,222.4251,98.3576,261.7582,6.7384e-05,7.85e-06,0.0,0 STARLINK-4674,1 53591U 22104D   24002.63090671  .00000785  00000-0  67384-4 0  9994,2 53591  53.2156 222.4251 0001469  98.3576 261.7582 15.08838596 75638,6917.885,95.438,540.766,538.733,0.0
53591.0,STARLINK-4674,PAYLOAD,2024-01-02 21:30:02,15.08839956,0.0001456,53.2156,221.2356,98.2749,261.8408,6.8585e-05,8.04e-06,0.0,0 STARLINK-4674,1 53591U 22104D   24002.89586550  .00000804  00000-0  68585-4 0  9994,2 53591  53.2156 221.2356 0001456  98.2749 261.8408 15.08839956 75671,6917.881,95.438,540.753,538.738,0.0
53591.0,STARLINK-4674,PAYLOAD,2024-01-03 19:45:27,15.0883504,0.0001428,53.2154,217.0726,96.3921,263.7233,6.7556e-06,-1.8e-06,0.0,0 STARLINK-4674,1 53591U 22104D   24003.82323222 -.00000180  00000-0  67556-5 0  9999,2 53591  53.2154 217.0726 0001428  96.3921 263.7233 15.08835040 74770,6917.896,95.438,540.748,538.773,0.0
53591.0,STARLINK-4674,PAYLOAD,2024-01-04 00:31:36,15.08834126,0.0001417,53.2152,216.1809,94.9622,265.1532,-4.076e-06,-3.53e-06,0.0,0 STARLINK-4674,1 53591U 22104D   24004.02195391 -.00000353  00000-0 -40760-5 0  9997,2 53591  53.2152 216.1809 0001417  94.9622 265.1532 15.08834126 75841,6917.898,95.438,540.744,538.783,0.0
53591.0,STARLINK-4674,PAYLOAD,2024-01-04 21:11:36,15.08843723,0.0001348,53.2151,212.3161,88.4201,271.6946,8.1345e-05,1.007e-05,0.0,0 STARLINK-4674,1 53591U 22104D   24004.88306643  .00001007  00000-0  81345-4 0  9993,2 53591  53.2151 212.3161 0001348  88.4201 271.6946 15.08843723 75971,6917.869,95.437,540.667,538.801,0.0
53591.0,STARLINK-4674,PAYLOAD,2024-01-05 19:27:01,15.08833254,0.000141,53.2154,208.1532,74.4433,285.6715,4.5837e-05,4.42e-06,0.0,0 STARLINK-4674,1 53591U 22104D   24005.81043715  .00000442  00000-0  45837-4 0  9993,2 53591  53.2154 208.1532 0001410  74.4433 285.6715 15.08833254 75079,6917.901,95.438,540.741,538.791,0.0
53591.0,STARLINK-4674,PAYLOAD,2024-01-05 21:02:24,15.08834164,0.0001516,53.216,207.8534,76.7,283.4161,4.1713e-05,3.76e-06,0.0,0 STARLINK-4674,1 53591U 22104D   24005.87667691  .00000376  00000-0  41713-4 0  9999,2 53591  53.2160 207.8534 0001516  76.7000 283.4161 15.08834164 76125,6917.898,95.438,540.812,538.714,0.0
53591.0,STARLINK-4674,PAYLOAD,2024-01-06 12:56:16,15.08839286,0.0001527,53.2162,204.8818,100.2234,259.8931,-3.162e-06,-3.38e-06,0.0,0 STARLINK-4674,1 53591U 22104D   24006.53907551 -.00000338  00000-0 -31620-5 0  9992,2 53591  53.2162 204.8818 0001527 100.2234 259.8931 15.08839286 76226,6917.883,95.438,540.804,538.691,0.0
53591.0,STARLINK-4674,PAYLOAD,2024-01-06 19:17:48,15.08818223,0.0001329,53.2158,203.6928,92.772,267.3424,0.00032797,4.933e-05,0.0,0 STARLINK-4674,1 53591U 22104D   24006.80403765  .00004933  00000-0  32797-3 0  9997,2 53591  53.2158 203.6928 0001329  92.7720 267.3424 15.08818223 76268,6917.947,95.439,540.731,538.893,0.0
53591.0,STARLINK-4674,PAYLOAD,2024-01-07 19:08:35,15.08843573,0.0001483,53.2155,199.2316,87.2662,272.85,0.00012225,1.658e-05,0.0,0 STARLINK-4674,1 53591U 22104D   24007.79762995  .00001658  00000-0  12225-3 0  9994,2 53591  53.2155 199.2316 0001483  87.2662 272.8500 15.08843573 75374,6917.869,95.437,540.76,538.709,0.0
53591.0,STARLINK-4674,PAYLOAD,2024-01-07 22:19:21,15.08844591,0.0001464,53.2153,198.6366,89.2653,270.8507,0.00012634,1.724e-05,0.0,0 STARLINK-4674,1 53591U 22104D   24007.93010864  .00001724  00000-0  12634-3 0  9999,2 53591  53.2153 198.6366 0001464  89.2653 270.8507 15.08844591 76435,6917.866,95.437,540.744,538.719,0.0
53591.0,STARLINK-4674,PAYLOAD,2024-01-08 12:37:49,15.08843292,0.0001499,53.2154,195.9584,97.2589,262.8574,4.2807e-05,3.93e-06,0.0,0 STARLINK-4674,1 53591U 22104D   24008.52627132  .00000393  00000-0  42807-4 0  9994,2 53591  53.2154 195.9584 0001499  97.2589 262.8574 15.08843292 76525,6917.87,95.437,540.772,538.698,0.0
53591.0,STARLINK-4674,PAYLOAD,2024-01-08 18:59:22,15.08844599,0.0001472,53.2154,194.7689,103.1228,256.9929,5.113e-05,5.26e-06,0.0,0 STARLINK-4674,1 53591U 22104D   24008.79122899  .00000526  00000-0  51130-4 0  9990,2 53591  53.2154 194.7689 0001472 103.1228 256.9929 15.08844599 76569,6917.866,95.437,540.75,538.713,0.0
53591.0,STARLINK-4674,PAYLOAD,2024-01-09 12:28:36,15.08841734,0.0001531,53.2154,191.4977,106.7681,253.348,2.4097e-05,9.6e-07,0.0,0 STARLINK-4674,1 53591U 22104D   24009.51986998  .00000096  00000-0  24097-4 0  9993,2 53591  53.2154 191.4977 0001531 106.7681 253.3480 15.08841734 75639,6917.875,95.437,540.799,538.681,0.0
53591.0,STARLINK-4674,PAYLOAD,2024-01-09 22:00:55,15.08841362,0.0001451,53.2151,189.7138,103.9758,256.1396,1.3277e-05,-7.7e-07,0.0,0 STARLINK-4674,1 53591U 22104D   24009.91730993 -.00000077  00000-0  13277-4 0  9997,2 53591  53.2151 189.7138 0001451 103.9758 256.1396 15.08841362 76736,6917.876,95.437,540.745,538.737,0.0
53591.0,STARLINK-4674,PAYLOAD,2024-01-10 10:44:01,15.08835799,0.0001399,53.2152,187.3353,95.6073,264.5079,9.9089e-07,-2.72e-06,0.0,0 STARLINK-4674,1 53591U 22104D   24010.44723462 -.00000272  00000-0  99089-6 0  9994,2 53591  53.2152 187.3353 0001399  95.6073 264.5079 15.08835799 75779,6917.893,95.438,540.726,538.79,0.0
53591.0,STARLINK-4674,PAYLOAD,2024-01-11 10:34:48,15.08837553,0.0001335,53.2155,182.8749,90.5342,269.5803,3.128e-05,2.1e-06,0.0,0 STARLINK-4674,1 53591U 22104D   24011.44083454  .00000210  00000-0  31280-4 0  9993,2 53591  53.2155 182.8749 0001335  90.5342 269.5803 15.08837553 76966,6917.888,95.438,540.676,538.829,0.0
53591.0,STARLINK-4674,PAYLOAD,2024-01-11 18:31:43,15.08842507,0.0001338,53.2155,181.3885,85.0906,275.0239,6.9659e-05,8.21e-06,0.0,0 STARLINK-4674,1 53591U 22104D   24011.77203070  .00000821  00000-0  69659-4 0  9996,2 53591  53.2155 181.3885 0001338  85.0906 275.0239 15.08842507 75979,6917.873,95.437,540.663,538.812,0.0
53591.0,STARLINK-4674,PAYLOAD,2024-01-12 19:57:54,15.08838799,0.0001342,53.2158,176.6316,77.9483,282.1659,7.8028e-05,9.54e-06,0.0,0 STARLINK-4674,1 53591U 22104D   24012.83187565  .00000954  00000-0  78028-4 0  9991,2 53591  53.2158 176.6316 0001342  77.9483 282.1659 15.08838799 76135,6917.884,95.438,540.677,538.821,0.0
